{
  "type": "FeatureCollection",
  "features": [
    {
      "type": "Feature",
      "properties": {
        "norad_id": 37295,
        "name": "COSMOS 2251 DEB",
        "group": "cosmos-2251-debris",
        "lat": -7.1149382728824815,
        "lon": -106.59207850977378,
        "alt_km": 672.882227935751,
        "timestamp": "2025-12-26T07:29:18.852043+00:00",
        "meta_object_name": "COSMOS 2251 DEB",
        "meta_object_id": "1993-036BJK",
        "meta_epoch": "2025-12-25T16:46:30.932832",
        "meta_mean_motion": 14.65312772,
        "meta_eccentricity": 0.00441488,
        "meta_inclination": 74.006,
        "meta_ra_of_asc_node": 256.6411,
        "meta_arg_of_pericenter": 71.87,
        "meta_mean_anomaly": 288.7269,
        "meta_ephemeris_type": 0,
        "meta_classification_type": "U",
        "meta_norad_cat_id": 37295,
        "meta_element_set_no": 999,
        "meta_rev_at_epoch": 82494,
        "meta_bstar": 0.00055089823,
        "meta_mean_motion_dot": 2.985e-05,
        "meta_mean_motion_ddot": 0,
        "tle_line1": "1 37295U 93036BJK 25359.69896913  .00002985  00000+0  55090-3 0  9997",
        "tle_line2": "2 37295  74.0060 256.6411 0044148  71.8700 288.7269 14.65312772824941"
      },
      "geometry": {
        "type": "Point",
        "coordinates": [
          -106.59207850977378,
          -7.1149382728824815
        ]
      }
    },
    {
      "type": "Feature",
      "properties": {
        "norad_id": 37305,
        "name": "COSMOS 2251 DEB",
        "group": "cosmos-2251-debris",
        "lat": 25.347232142627046,
        "lon": 77.46239329579383,
        "alt_km": 757.7170031045971,
        "timestamp": "2025-12-26T07:29:18.852052+00:00",
        "meta_object_name": "COSMOS 2251 DEB",
        "meta_object_id": "1993-036BJV",
        "meta_epoch": "2025-12-23T00:11:55.974336",
        "meta_mean_motion": 14.36169187,
        "meta_eccentricity": 0.00495961,
        "meta_inclination": 73.8701,
        "meta_ra_of_asc_node": 271.4675,
        "meta_arg_of_pericenter": 230.2466,
        "meta_mean_anomaly": 129.4312,
        "meta_ephemeris_type": 0,
        "meta_classification_type": "U",
        "meta_norad_cat_id": 37305,
        "meta_element_set_no": 999,
        "meta_rev_at_epoch": 67014,
        "meta_bstar": 0.00056579218,
        "meta_mean_motion_dot": 1.645e-05,
        "meta_mean_motion_ddot": 0,
        "tle_line1": "1 37305U 93036BJV 25357.00828674  .00001645  00000+0  56579-3 0  9996",
        "tle_line2": "2 37305  73.8701 271.4675 0049596 230.2466 129.4312 14.36169187670140"
      },
      "geometry": {
        "type": "Point",
        "coordinates": [
          77.46239329579383,
          25.347232142627046
        ]
      }
    },
    {
      "type": "Feature",
      "properties": {
        "norad_id": 37312,
        "name": "COSMOS 2251 DEB",
        "group": "cosmos-2251-debris",
        "lat": -34.66070761570384,
        "lon": 167.4255881504773,
        "alt_km": 734.4568971788485,
        "timestamp": "2025-12-26T07:29:18.852062+00:00",
        "meta_object_name": "COSMOS 2251 DEB",
        "meta_object_id": "1993-036BKC",
        "meta_epoch": "2025-12-24T20:47:26.400192",
        "meta_mean_motion": 14.46161894,
        "meta_eccentricity": 0.0018528,
        "meta_inclination": 74.0296,
        "meta_ra_of_asc_node": 181.5439,
        "meta_arg_of_pericenter": 283.6542,
        "meta_mean_anomaly": 76.2553,
        "meta_ephemeris_type": 0,
        "meta_classification_type": "U",
        "meta_norad_cat_id": 37312,
        "meta_element_set_no": 999,
        "meta_rev_at_epoch": 86339,
        "meta_bstar": 0.00042921,
        "meta_mean_motion_dot": 1.51e-05,
        "meta_mean_motion_ddot": 0,
        "tle_line1": "1 37312U 93036BKC 25358.86627778  .00001510  00000+0  42921-3 0  9998",
        "tle_line2": "2 37312  74.0296 181.5439 0018528 283.6542  76.2553 14.46161894863392"
      },
      "geometry": {
        "type": "Point",
        "coordinates": [
          167.4255881504773,
          -34.66070761570384
        ]
      }
    },
    {
      "type": "Feature",
      "properties": {
        "norad_id": 37316,
        "name": "COSMOS 2251 DEB",
        "group": "cosmos-2251-debris",
        "lat": 14.669348646192764,
        "lon": -2.015024012321612,
        "alt_km": 567.389387609448,
        "timestamp": "2025-12-26T07:29:18.852072+00:00",
        "meta_object_name": "COSMOS 2251 DEB",
        "meta_object_id": "1993-036BKG",
        "meta_epoch": "2025-12-23T10:21:39.448512",
        "meta_mean_motion": 14.94918981,
        "meta_eccentricity": 0.00294951,
        "meta_inclination": 74.0191,
        "meta_ra_of_asc_node": 359.4944,
        "meta_arg_of_pericenter": 63.4834,
        "meta_mean_anomaly": 296.9369,
        "meta_ephemeris_type": 0,
        "meta_classification_type": "U",
        "meta_norad_cat_id": 37316,
        "meta_element_set_no": 999,
        "meta_rev_at_epoch": 86303,
        "meta_bstar": 0.0022174093,
        "meta_mean_motion_dot": 0.00024458,
        "meta_mean_motion_ddot": 0,
        "tle_line1": "1 37316U 93036BKG 25357.43170658  .00024458  00000+0  22174-2 0  9997",
        "tle_line2": "2 37316  74.0191 359.4944 0029495  63.4834 296.9369 14.94918981863037"
      },
      "geometry": {
        "type": "Point",
        "coordinates": [
          -2.015024012321612,
          14.669348646192764
        ]
      }
    },
    {
      "type": "Feature",
      "properties": {
        "norad_id": 37320,
        "name": "COSMOS 2251 DEB",
        "group": "cosmos-2251-debris",
        "lat": 73.66675656705435,
        "lon": -66.0040305463057,
        "alt_km": 658.1766562111179,
        "timestamp": "2025-12-26T07:29:18.852082+00:00",
        "meta_object_name": "COSMOS 2251 DEB",
        "meta_object_id": "1993-036BKL",
        "meta_epoch": "2025-12-22T20:16:00.405696",
        "meta_mean_motion": 14.78886663,
        "meta_eccentricity": 0.0046926,
        "meta_inclination": 74.0442,
        "meta_ra_of_asc_node": 198.3073,
        "meta_arg_of_pericenter": 283.335,
        "meta_mean_anomaly": 76.2596,
        "meta_ephemeris_type": 0,
        "meta_classification_type": "U",
        "meta_norad_cat_id": 37320,
        "meta_element_set_no": 999,
        "meta_rev_at_epoch": 66296,
        "meta_bstar": 0.000787018,
        "meta_mean_motion_dot": 5.877e-05,
        "meta_mean_motion_ddot": 0,
        "tle_line1": "1 37320U 93036BKL 25356.84444914  .00005877  00000+0  78702-3 0  9998",
        "tle_line2": "2 37320  74.0442 198.3073 0046926 283.3350  76.2596 14.78886663662961"
      },
      "geometry": {
        "type": "Point",
        "coordinates": [
          -66.0040305463057,
          73.66675656705435
        ]
      }
    },
    {
      "type": "Feature",
      "properties": {
        "norad_id": 37326,
        "name": "COSMOS 2251 DEB",
        "group": "cosmos-2251-debris",
        "lat": 1.5557969482160996,
        "lon": 128.26952793294512,
        "alt_km": 699.6304900330088,
        "timestamp": "2025-12-26T07:29:18.852092+00:00",
        "meta_object_name": "COSMOS 2251 DEB",
        "meta_object_id": "1993-036BKS",
        "meta_epoch": "2025-12-18T14:41:59.918784",
        "meta_mean_motion": 14.6160351,
        "meta_eccentricity": 0.00547059,
        "meta_inclination": 74.0257,
        "meta_ra_of_asc_node": 323.4491,
        "meta_arg_of_pericenter": 90.7075,
        "meta_mean_anomaly": 270.0361,
        "meta_ephemeris_type": 0,
        "meta_classification_type": "U",
        "meta_norad_cat_id": 37326,
        "meta_element_set_no": 999,
        "meta_rev_at_epoch": 85569,
        "meta_bstar": 0.00040097011,
        "meta_mean_motion_dot": 2.005e-05,
        "meta_mean_motion_ddot": 0,
        "tle_line1": "1 37326U 93036BKS 25352.61249906  .00002005  00000+0  40097-3 0  9995",
        "tle_line2": "2 37326  74.0257 323.4491 0054705  90.7075 270.0361 14.61603510855692"
      },
      "geometry": {
        "type": "Point",
        "coordinates": [
          128.26952793294512,
          1.5557969482160996
        ]
      }
    },
    {
      "type": "Feature",
      "properties": {
        "norad_id": 37330,
        "name": "COSMOS 2251 DEB",
        "group": "cosmos-2251-debris",
        "lat": 67.434742042332,
        "lon": -47.21515612533701,
        "alt_km": 656.7660520644649,
        "timestamp": "2025-12-26T07:29:18.852103+00:00",
        "meta_object_name": "COSMOS 2251 DEB",
        "meta_object_id": "1993-036BKW",
        "meta_epoch": "2025-12-24T00:52:02.666208",
        "meta_mean_motion": 14.59569552,
        "meta_eccentricity": 0.00567424,
        "meta_inclination": 74.0177,
        "meta_ra_of_asc_node": 273.5222,
        "meta_arg_of_pericenter": 118.7622,
        "meta_mean_anomaly": 241.926,
        "meta_ephemeris_type": 0,
        "meta_classification_type": "U",
        "meta_norad_cat_id": 37330,
        "meta_element_set_no": 999,
        "meta_rev_at_epoch": 86533,
        "meta_bstar": 0.00027721204,
        "meta_mean_motion_dot": 1.317e-05,
        "meta_mean_motion_ddot": 0,
        "tle_line1": "1 37330U 93036BKW 25358.03614197  .00001317  00000+0  27721-3 0  9994",
        "tle_line2": "2 37330  74.0177 273.5222 0056742 118.7622 241.9260 14.59569552865338"
      },
      "geometry": {
        "type": "Point",
        "coordinates": [
          -47.21515612533701,
          67.434742042332
        ]
      }
    }
  ]
}